{
    "links": {
        "self": "http://www.neowsapp.com/rest/v1/neo/3694457?api_key=iIulBulltgU6a56xZRHN4H3l9WmuAYTsLGpBGhQ2"
    },
    "id": "3694457",
    "neo_reference_id": "3694457",
    "name": "(2014 UX56)",
    "designation": "2014 UX56",
    "nasa_jpl_url": "http://ssd.jpl.nasa.gov/sbdb.cgi?sstr=3694457",
    "absolute_magnitude_h": 24.8,
    "estimated_diameter": {
        "kilometers": {
            "estimated_diameter_min": 0.0291443905,
            "estimated_diameter_max": 0.0651688382
        },
        "meters": {
            "estimated_diameter_min": 29.1443904535,
            "estimated_diameter_max": 65.1688382168
        },
        "miles": {
            "estimated_diameter_min": 0.018109479,
            "estimated_diameter_max": 0.0404940262
        },
        "feet": {
            "estimated_diameter_min": 95.6180819754,
            "estimated_diameter_max": 213.8085311752
        }
    },
    "is_potentially_hazardous_asteroid": false,
    "close_approach_data": [
        {
            "close_approach_date": "2014-10-16",
            "close_approach_date_full": "2014-Oct-16 13:03",
            "epoch_date_close_approach": 1413464580000,
            "relative_velocity": {
                "kilometers_per_second": "7.4785319434",
                "kilometers_per_hour": "26922.7149960613",
                "miles_per_hour": "16728.7281040804"
            },
            "miss_distance": {
                "astronomical": "0.0865844048",
                "lunar": "33.6813334672",
                "kilometers": "12952842.533297776",
                "miles": "8048523.1352142688"
            },
            "orbiting_body": "Earth"
        }
    ],
    "orbital_data": {
        "orbit_id": "3",
        "orbit_determination_date": "2017-04-06 08:37:56",
        "first_observation_date": "2014-10-24",
        "last_observation_date": "2014-10-26",
        "data_arc_in_days": 2,
        "observations_used": 28,
        "orbit_uncertainty": "8",
        "minimum_orbit_intersection": ".0863345",
        "jupiter_tisserand_invariant": "4.145",
        "epoch_osculation": "2456955.5",
        "eccentricity": ".3632751075729058",
        "semi_major_axis": "1.674679245595247",
        "inclination": "10.92692665130506",
        "ascending_node_longitude": "32.94132474776491",
        "orbital_period": "791.5819524943179",
        "perihelion_distance": "1.066309962501521",
        "perihelion_argument": "334.8756464812571",
        "aphelion_distance": "2.283048528688974",
        "perihelion_time": "2456932.974289105639",
        "mean_anomaly": "10.24436686109032",
        "mean_motion": ".4547855075088819",
        "equinox": "J2000",
        "orbit_class": {
            "orbit_class_type": "AMO",
            "orbit_class_description": "Near-Earth asteroid orbits similar to that of 1221 Amor",
            "orbit_class_range": "1.017 AU < q (perihelion) < 1.3 AU"
        }
    },
    "is_sentry_object": false
}